NAVSTAR 77 (USA 289)    
1 43873U 18109A   24199.76037763 -.00000016  00000+0  00000+0 0  9994
2 43873  55.3076 119.8208 0029466 194.1946 349.8875  2.00557451 41045
